id,street,city,state,zip
0,208 MCMEANS AVE,BAY MINETTE,AL,36507
1,710 MCMEANS AVE,BAY MINETTE,AL,36507
2,2012 HAND AVE,BAY MINETTE,AL,36507
3,619 MCMEANS AVENUE,BAY MINETTE,AL,36507
4,109 COURTHOUSE SQUARE,BAY MINETTE,AL,36507
5,618 MCMEANS AVENUE,BAY MINETTE,AL,36507
6,1200 N MCKENZIE STREET,FOLEY,AL,36535
7,14965 HWY 59,FOLEY,AL,36535
8,69005 MAIN STREET,BLOUNTSVILLE,AL,35031
9,69005 MAIN ST,BLOUNTSVILLE,AL,35031
10,1 MAIN STREET,ROCKFORD,AL,35136
11,9681 HWY 231,ROCKFORD,AL,35136
12,1910 MAIN AVE SW,CULLMAN,AL,35055
13,1704 CHEROKEE AVENUE SW,CULLMAN,AL,35055
14,1407 SECOND AVE S,W CULLMAN,AL,35055
15,1824 MAIN AVENUE S,W CULLMAN,AL,35055
16,1606 2ND AVENUE S,W CULLMAN,AL,35055
17,1700 2ND AVENUE SOUTHWEST,CULLMAN,AL,35055
18,1701 MAIN AVE SW,CULLMAN,AL,35055
19,715 CULLMAN SHOPPING CENTER,CULLMAN,AL,35055
20,1731 2ND AVE S,W CULLMAN,AL,35055
21,124 7TH ST SW,CULLMAN,AL,35055
22,626 OLIVE STREET SW,CULLMAN,AL,35055
23,802 FORREST AVE,EAST BREWTON,AL,36426
24,1020 TUSCALOOSA AVENUE,GADSDEN,AL,35901
25,1151 ROSS CLARK CIRCLE,DOTHAN,AL,36301
26,134 PREVATT ROAD,DOTHAN,AL,36301
27,21549 AL HWY,SCOTTSBORO,AL,35768
28,1201 11TH AVENUE SOUTH,BIRMINGHAM,AL,35205
29,1431 11TH AVENUE,SO BIRMINGHAM,AL,35205
30,1201 11 AVE,SO BIRMINGHAM,AL,35205
31,6405 AVENUE K,BESSEMER,AL,35020
32,4911 CAHABA RIVER ROAD,BIRMINGHAM,AL,35243
33,4700 CAHABA RIVER RD,BIRMINGHAM,AL,35243
34,2201 TYLER RD,HOOVER,AL,35226
35,1717 SOUTH COLLEGE STREET,AUBURN,AL,36830
36,1617 S COLLEGE ST,AUBURN,AL,36832
37,1036 N BRINDLEE MTN PARKWAY,ARAB,AL,35016
38,606 BRINDLEE MTN PKWY NORTH,ARAB,AL,35016
39,1320 GOVERNMENT ST,MOBILE,AL,36604
40,1550 GOVERNMENT STREET,MOBILE,AL,36604
41,1050 S BROAD ST,MOBILE,AL,36603
42,101 SOUTH BELTLINE HIGHWAY,MOBILE,AL,36606
43,3065 DAUPHIN STREET,MOBILE,AL,36606
44,601 EAST I 65 SERVICE ROAD SOUTH,MOBILE,AL,36606
45,2601 EMOGENE STREET,MOBILE,AL,36606
46,4682 AIRPORT BLVD,MOBILE,AL,36608
47,4790 MOBILE HWY,MONTGOMERY,AL,36108
48,4724 MOBILE HWY,MONTGOMERY,AL,36108
49,401 CORSBIE ST NW,HARTSELLE,AL,35640
50,240 HWY 31 SOUTHWEST,HARTSELLE,AL,35640
51,241 HIGHWAY 31 SW,HARTSELLE,AL,35640
52,201 HIGHWAY 31 NW,HARTSELLE,AL,35640
53,241 HIGHWAY 31 SW,HARTSELLE,AL,35640
54,302 PINE ST NW,HARTSELLE,AL,35640
55,4087 HIGHWAY 31 S,W FALKVILLE,AL,35622
56,113 3RD STREET,ALICEVILLE,AL,35442
57,551 MEMORIAL PARKWAY EAST,ALICEVILLE,AL,35442
58,1108 13TH STREET,PHENIX CITY,AL,36867
59,1108 13TH STREET,PHENIX CITY,AL,36867
60,15582 HWY 280,CHELSEA,AL,35043
61,16468 HIGHWAY 280,CHELSEA,AL,35043
62,16712 S HWY 280,CHELSEA,AL,35043
63,501 CHELSEA CROSSROADS,CHELSEA,AL,35043
64,108 LAFAYETTE STREET,LIVINGSTON,AL,35470
65,583 FOURTH AVENUE,YORK,AL,36925
66,400 COUNTRY CLUB RD,YORK,AL,36925
67,10 MCFARLAND BLVD,NORTHPORT,AL,35476
68,1700 MCFARLAND BLVD,NORTHPORT,AL,35476
69,400 MCFARLAND BLVD,NORTHPORT,AL,35476
70,16114 HWY 216 SUITE,BROOKWOOD,AL,35444
71,1501 SKYLAND BLVD EAST,TUSCALOOSA,AL,35405
72,1401 SKYLAND BLVD,TUSCALOOSA,AL,35405
73,2916 UNIVERSITY BLVD E,TUSCALOOSA,AL,35404
74,HWY 195 GATEWAY,SHOPPING CENTER DOUBLE SPRINGS,AL,35553
75,25372 HIGHWAY 195,DOUBLE SPRINGS,AL,35553
76,26289 HWY 195,DOUBLE SPRINGS,AL,35553
77,1111 HIGHLAND AVE,SELMA,AL,36703
78,133 5 BROAD ST,SELMA,AL,36701
79,4310 MONTGOMERY HWY,DOTHAN,AL,36303
80,1571 WESTGATE PARKWAY,DOTHAN,AL,36303
81,170 FORT MORGAN RD,GULF SHORES,AL,36542
82,604 EAST PUSHMATAHA STREET,BUTLER,AL,36904
83,313 E PUSHMATAHA ST,BUTLER,AL,36904
84,307 NORTH MULBERRY AVE,BUTLER,AL,36904
85,123 JACKSON ST,GROVE HILL,AL,36451
86,126 MAIN STREET,GROVE HILL,AL,36451
87,11784 HWY 157,VINEMONT,AL,35179
88,11784 AL HWY,VINEMONT,AL,35179
89,176 ANDREWS AVE,OZARK,AL,36360
90,127 SOUTH EAST AVE,OZARK,AL,36360
91,127 SOUTH EAST AVENUE,OZARK,AL,36360
92,101 BROAD ST,SELMA,AL,36701
93,1631 BROAD STREET,SELMA,AL,36701
94,217 BROAD ST,SELMA,AL,36701
95,415 JEFF DAVIS AVE,SELMA,AL,36701
96,"1018 HIGHLAND AVENUE,","SELMA,",AL,36701
97,133 BROAD STREET,SELMA,AL,36702
98,278 NORTH THIRD STREET,GADSDEN,AL,35901
99,278 NORTH THIRD STREET,GADSDEN,AL,35901
100,2106 EWING AVENUE,GADSDEN,AL,35901
101,300 WALL STREET,GADSDEN,AL,35904
102,455 UNDERWOOD RD,RUSSELLVILLE,AL,35653
103,13675 HIGHWAY 43,RUSSELLVILLLE,AL,35653
104,455 UNDERWOOD ROAD,RUSSELLVILLE,AL,35653
105,609 GANDY ST NE,RUSSELLVILLE,AL,35653
106,609 GANDY ST NE,RUSSELLVILLE,AL,35653
107,318 SOUTH JACKSON AVE,RUSSELLVILLE,AL,35653
108,104 WEST MONTGOMERY,RUSSELLVILLE,AL,35653
109,609 GANDY ST NE,RUSSELLVILLE,AL,35653
110,1909 HONEYSUCKLE RD,SOUTHWIND MEDICAL PARK DOTHAN,AL,36305
111,3119 WESLEY WAY,DOTHAN,AL,36305
112,1906 FAIRVIEW AVE,DOTHAN,AL,36301
113,2021 ALEXANDER DR,DOTHAN,AL,36301
114,1620 ROSS CLARK CIRCLE,DOTHAN,AL,36301
115,2019 ALEXANDER DRIVE,DOTHAN,AL,36301
116,1108 ROSS CLARK CIRCLE,DOTHAN,AL,36301
117,700 EAST COTTONWOOD RD,DOTHAN,AL,36301
118,1152 EAST LAKE BLVD,TARRANT,AL,35217
119,541 JACKSON BOULEVARD,TARRANT,AL,35217
120,541 JACKSON BLVD,TARRANT,AL,35217
121,2301 CENTER POINT PKWY,BIRMINGHAM,AL,35215
122,2402 OLD SPRINGVILLE ROAD,BIRMINGHAM,AL,35215
123,"2264 BRREWSTER RD,","BIRMINGHAM,",AL,35235
124,1551 FORESTDALE BLVD,FORESTDALE,AL,35214
125,1615 MONTGOMERY HIGHWAY,HOOVER,AL,35216
126,3317 LORNA ROAD,HOOVER,AL,35216
127,1561 MONTGOMERY HWY,HOOVER,AL,35216
128,3133 LORNA RD,HOOVER,AL,35216
129,1881 CHACE DR,HOOVER,AL,35244
130,3650 GALLERIA CIRCLE,HOOVER,AL,35244
131,3053 JOHNS HAWKINS PARKWAY,HOOVER,AL,35244
132,869 FLORENCE BLVD,FLORENCE,AL,35630
133,512 2ND AVE,OPELIKA,AL,36801
134,512 2ND AVENUE,OPELIKA,AL,36801
135,1713 PEPPERELL PKWY,OPELIKA,AL,36801
136,1515 A 2ND AVE,OPELIKA,AL,36801
137,207 NORTH 6TH ST,OPELIKA,AL,36801
138,30508 ARDMORE AVENUE,ARDMORE,AL,35739
139,29930 ARDMORE AVE,ARDMORE,AL,35739
140,625 ATHENS TOWN CENTER,ATHENS,AL,35611
141,225 HAYNEVILLE PLAZA,HAYNEVILLE,AL,36040
142,12 LAFAYETTE ST,HAYNEVILLE,AL,36040
143,4851 WHITESBURG DRIVE SE,HUNTSVILLE,AL,35802
144,4715 WHITESBURG DR,HUNTSVILLE,AL,35802
145,6046 HIGHWAY 53,HARVEST,AL,35749
146,5850 HIGHWAY 53,HARVEST,AL,35749
147,1445 GUNTER AVENUE,GUNTERSVILLE,AL,35976
148,11697 S HWY 431,GUNTERSVILLE,AL,35976
149,2011 GUNTER AVE,GUNTERSVILLE,AL,35976
150,2011 SPRINGHILL AVENUE,MOBILE,AL,36607
151,1 MOBILE INFIRMARY CIRCLE,MOBILE,AL,36607
152,3932 COTTAGE HILL RD,MOBILE,AL,36609
153,6395 AIRPORT BLVD,MOBILE,AL,36608
154,6300 GRELOT ROAD,MOBILE,AL,36609
155,306 SOUTH UNIVERSITY BLVD,MOBILE,AL,36609
156,306 SOUTH UNIVERSITY BLVD,MOBILE,AL,36609
157,2300 EAST SOUTH BOULEVARD,MONTGOMERY,AL,36116
158,17216 HIGHWAY 431,WEDOWEE,AL,36278
159,17054 HWY 431,WEDOWEE,AL,36278
160,608 MARTIN STREET SOUTH,PELL CITY,AL,35128
161,2040 MARTIN STREET SOUTH,PELL CITY,AL,35128
162,760 MARTIN ST SOUTH,A PELL CITY,AL,35128
163,205 BUCK CREEK PLAZA,ALABASTER,AL,35007
164,264 WEST FT WILLAMS STREET,SYLACAUGA,AL,35150
165,2 N BROADWAY AVE,SYLACAUGA,AL,35150
166,401 WEST FORT WILLIAMS STREET,SYLACAUGA,AL,35150
167,100 W FT WILLIAMS ST,SYLACAUGA,AL,35150
168,800 N BROADWAY,SYLACAUGA,AL,35150
169,216 N BROADWAY,SYLACAUGA,AL,35150
170,1 NORTH BROADWAY AVENUE,SYLACAUGA,AL,35150
171,4373 NORTHCREEK BLVD,NORTHPORT,AL,35473
172,1910 MCFARLAND BOULEVARD,NORTHPORT,AL,35476
173,4280 MITT LARY RD,NORTHPORT,AL,35475
174,2300 MCFARLAND BLVD,NORTHPORT,AL,35476
175,2300 MCFARLAND BLVD,NORTHPORT,AL,35476
176,2360 MCFARLAND BLVD EAST,TUSCALOOSA,AL,35404
177,315 EAST 15 STREET,TUSCALOOSA,AL,35401
178,1800 MCFARLAND BLVD EAST,TUSCALOOSA,AL,35404
179,600 SKYLAND BLVD E,TUSCALOOSA,AL,35405
180,800 QUINTARD AVE,ANNISTON,AL,36201
181,800 NOBLE ST,ANNISTON,AL,36201
182,1430 QUINTARD AVENUE,ANNISTON,AL,36201
183,1316 NOBLE STREET,ANNISTON,AL,36201
184,1501 HWY 14 EAST,SELMA,AL,36703
185,7171 ALABAMA HIGHWAY 22,NORTH VALLEY GRANDE,AL,36701
186,201 VETERANS DR,SCOTTSBORO,AL,35768
187,106 PARKS AVENUE,SCOTTSBORO,AL,35768
188,801 S BROAD ST,SCOTTSBORO,AL,35768
189,521 RICHARD ARRINGTON BLVD S 521 SOUTH 21ST STREET,BIRMINGHAM,AL,35233
190,2000 6TH AVENUE SOUTH,BIRMINGHAM,AL,35233
191,930 SOUTH 20TH STREET,BIRMINGHAM,AL,35205
192,1032 20TH ST,SOUTH BIRMINGHAM,AL,35205
193,1521 4TH AVE SOUTH,BIRMINGHAM,AL,35233
194,,BIRMINGHAM,AL,35233
195,601 19TH STREET SOUTH,BIRMINGHAM,AL,35249
196,464 N DEAN ROAD,AUBURN,AL,36830
197,770 EAST GLENN AVENUE,AUBURN,AL,36830
198,765 E GLENN AVE,AUBURN,AL,36830
199,1625 E UNIVERSITY DR,AUBURN,AL,36830
200,300 DEANS RD,AUBURN,AL,36830
201,1530 EAST GLENN AVE,AUBURN,AL,36832
202,310 SOUTH MAIN STREET,LINDEN,AL,36748
203,900 GOVERNMENT ST,MOBILE,AL,36604
204,851 ANN STREET,MONTGOMERY,AL,36107
205,2422 J DANVILLE ROAD SW,DECATUR,AL,35603
206,1605 BELTLINE RD SW,DECATUR,AL,35601
207,3588 MONTGOMERY HIGHWAY,PELHAM,AL,35124
208,1944 MONTGOMERY HIGHWAY S,BIRMINGHAM,AL,35244
209,2200 RIVERCHASE CENTER,HOOVER,AL,35244
210,370 SCHILLINGER ROAD SOUTH,MOBILE,AL,36695
211,2490 SCHILLINGER RD,S MOBILE,AL,36695
212,2420 DAWES ROAD,MOBILE,AL,36695
213,790 SCHILLINGER ROAD SOUTH,MOBILE,AL,36695
214,664 SCHILLINGER RD,S MOBILE,AL,36695
215,209 S WASHINGTON ST,AUTAUGAVILLE,AL,36003
216,1404 GOLDEN SPRINGS RD,ANNISTON,AL,36207
217,1408 GOLDEN SPRINGS ROAD,ANNISTON,AL,36207
218,1401 GOLDEN SPRINGS RD,ANNISTON,AL,36207
219,69 WEST MAIN STREET,GILBERTOWN,AL,36908
220,13456 CHOCTAW AVENUE,GILBERTOWN,AL,36908
221,509 EAST CUMMINGS AVENUE,OPP,AL,36467
222,24 HERREN HILL RD 24 HERREN HILL ROAD,TALLASSEE,AL,36078
223,1405 GILMER AVE,TALLASSEE,AL,36078
224,10 GILMER AVE,TALLASSEE,AL,36078
225,"10 GILMER AVENUE,","TALLASSEE,",AL,36078
226,1405 GILMER AVENUE,TALLASSEE,AL,36078
227,"3240 HIGHWAY 431,","ROANOKE,",AL,36274
228,3780 RIVERCHASE VILLAGE,HOOVER,AL,35216
229,17150 US HIGHWAY 80 WEST,SHORTER,AL,36075
230,10460 AL HWY,BOAZ,AL,35957
231,10639 AL HWY,BOAZ,AL,35957
232,241 BILLY DYAR BLVD,BOAZ,AL,35957
233,920 US HWY 431,BOAZ,AL,35957
234,1972 HIGHWAY 431,BOAZ,AL,35957
235,2370 HILLCREST ROAD,MOBILE,AL,36695
236,628 N WILSON AVE,PRICHARD,AL,36610
237,2800 SPRING AVENUE S,W DECATUR,AL,35603
238,1101 BELTLINE RD,DECATUR,AL,35601
239,2828 6TH AVE SE,DECATUR,AL,35601
240,1101 BELTLINE RD,DECATUR,AL,35601
241,1235 PT MALLARD PKWY SE,DECATUR,AL,35601
242,10303 MAIN STREET,OAKMAN,AL,35579
243,7 CAMDEN BYPASS,CAMDEN,AL,36726
244,24 CAMDEN BYPASS,CAMDEN,AL,36726
245,212 CLAIBORNE STREET,CAMDEN,AL,36726
246,1421 GULF SHORES PKWY,GULF SHORES,AL,36542
247,1527 HIGHWAY 59 SOUTH,GULF SHORES,AL,36542
248,3645 GULF SHORES PKWY 107,GULF SHORES,AL,36542
249,251 CLUBHOUSE DRIVE,GULF SHORES,AL,36547
250,251 CLUBHOUSE DRIVE,GULF SHORES,AL,36542
251,602 1ST AVENUE EAST,ONEONTA,AL,35121
252,2453 2ND AVE,EAST ONEONTA,AL,35121
253,2040 2ND AVE EAST,ONEONTA,AL,35121
254,"935 2ND AVE EAST,","ONEONTA,",AL,35121
255,1402 WEST DALLAS AVE,SELMA,AL,36701
256,1952 W DALLAS AVE,SELMA,AL,36701
257,1504 S MAIN STREET,ATMORE,AL,36502
258,108 SOUTH MAIN ST,ATMORE,AL,36502
259,400 MEDICAL PARK DRIVE,ATMORE,AL,36502
260,506 EAST CHURCH STREET,ATMORE,AL,36502
261,406 MEDICAL PARK DR,ATMORE,AL,36502
262,109 LINDBERG AVE,ATMORE,AL,36502
263,410 EAST CHURCH STREET,ATMORE,AL,36502
264,1513 5TH AVE N,BIRMINGHAM,AL,35203
265,221 20TH STREET,NORTH BIRMINGHAM,AL,35203
266,712 25TH STREET,NORTH BIRMINGHAM,AL,35203
267,2910 ALLISON BONNETT MEM DR,HUEYTOWN,AL,35023
268,3025 ALLISON BONNETT MEMORIAL DR,HUEYTOWN,AL,35023
269,3022 ALLISON BONNETT DR,HUEYTOWN,AL,35023
270,3014 ALLISON BONNETT MEMORIAL DR,HUEYTOWN,AL,35023
271,3056 ALLISON BONNETT,HUEYTOWN,AL,35023
272,,HUEYTOWN,AL,35023
273,101 US HWY 31 N,ATHENS,AL,35611
274,104 HIGHWAY 31,NORTH ATHENS,AL,35611
275,2525 OAKWOOD AVE,HUNTSVILLE,AL,35810
276,1205 NORTH MEMORIAL PARKWAY,HUNTSVILLE,AL,35801
277,1401 MEMORIAL PARKWAY N W,HUNTSVILLE,AL,35801
278,2599 SPARKMAN DRIVE,HUNTSVILLE,AL,35810
279,2110 OAKWOOD AVE,HUNTSVILLE,AL,35810
280,285 DUNLOP BLVD,HUNTSVILLE,AL,35824
281,797 MILITARY STREET S,HAMILTON,AL,35570
282,3190 ZELDA RD,MONTGOMERY,AL,36106
283,1525 FOREST AVENUE,MONTGOMERY,AL,36106
284,3700 HWY 280 431,NORTH PHENIX CITY,AL,36867
285,715 HWY 106,WEST GEORGIANA,AL,36033
286,236 JONES STREET,GEORGIANA,AL,36033
287,311 PELHAM RD S,JACKSONVILLE,AL,36265
288,7 PUBLIC SQUARE EAST,JACKSONVILLE,AL,36265
289,610 2ND AVENUE NW,CULLMAN,AL,35055
290,106 2ND AVE S,W CULLMAN,AL,35055
291,1201 4TH STREET S,W CULLMAN,AL,35055
292,444 2ND AVE NW,CULLMAN,AL,35055
293,1270 WEST MAIN STREET,DOTHAN,AL,36301
294,3440 ROSS CLARK CIRCLE NW,DOTHAN,AL,36303
295,1774 WEST MAIN STREET,DOTHAN,AL,36301
296,842 PEACHTREE ST,PRATTVILLE,AL,36066
297,703 S MEMORIAL DRIVE,PRATTVILLE,AL,36067
298,959 EAST MAIN ST,PRATTVILLE,AL,36066
299,103 SOUTH MEMORIAL DRIVE,PRATTVILLE,AL,36066
300,708 E MAIN ST,PRATTVILLE,AL,36067
301,701 MCMEANS AVENUE,BAY MINETTE,AL,36507
302,22530 US HWY 98,FAIRHOPE,AL,36532
303,10179 EASTERN SHORE DRIVE,SPANISH FORT,AL,36527
304,29683 FREDERICK BOULEVARD,DAPHNE,AL,36526
305,7101 HWY 90,DAPHNE,AL,36526
306,9052 INDEPENDENCE AVENUE,DAPHNE,AL,36526
307,3025 US HIGHWAY 98,DAPHNE,AL,36526
308,1698 US HWY 98,DAPHNE,AL,36526
309,3075 US HIGHWAY 98,DAPHNE,AL,36526
310,101 VILLA DRIVE,DAPHNE,AL,36526
311,1410 HWY 98,DAPHNE,AL,36526
312,24208 US HWY 98,FAIRHOPE,AL,36532
313,1410 HWY 98,DAPHNE,AL,36526
314,3820 GULF SHORES PKWY,GULF SHORES,AL,36542
315,160 COTTON CREEK DRIVE,GULF SHORES,AL,36542
316,24980 STATE ST,ELBERTA,AL,36530
317,23 COURT SQUARE,CLAYTON,AL,36016
318,3176 S EUFAULA AVE,EUFAULA,AL,36027
319,1055 S EUFAULA AVENUE,EUFAULA,AL,36027
320,,WOODSTOCK,AL,35188
321,23010 HIGHWAY 5,WEST BLOCTON,AL,35184
322,23010 HIGHWAY 5,WEST BLOCTON,AL,35184
323,27550 STATE HWY 75,ONEONTA,AL,35121
324,212 1ST AVE,EAST ONEONTA,AL,35121
325,302 N PRAIRIE,ST UNION SPRINGS,AL,36089
326,101 BASKIN ST,NORTH UNION SPRINGS,AL,36089
327,204 PRAIRIE STREET NORTH,UNION SPRINGS,AL,36089
328,101 GREENVILLE BYP,GREENVILLE,AL,36037
329,658 VALLEY CUB DRIVE,ALEXANDRIA,AL,36250
330,120 SPRING BRANCH ROAD,ALEXANDRIA,AL,36250
331,361 MUSTANG DR,RUSSELLVILLE,AL,35654
332,525 4TH AVE SE,RED BAY,AL,35582
333,523 FOURTH AVE SE,RED BAY,AL,35582
334,4109 EVA RD,EVA,AL,35621
335,4055 AL HWY,CEDAR BLUFF,AL,35959
336,1105 7TH ST,NORTH CLANTON,AL,35045
337,640 OLLIE AVE,CLANTON,AL,35045
338,641 OLLIE AVENUE,CLANTON,AL,35045
339,141 S DALTON STREET,SLOCOMB,AL,36375
340,1997 PEPPERELL PKWY,OPELIKA,AL,36801
341,2900 PEPPERELL PARKWAY,OPELIKA,AL,36801
342,2015 PEPPERELL PKWY,OPELIKA,AL,36801
343,121 N 20TH STREET,OPELIKA,AL,36801
344,2460 ENTERPRISE DRIVE,OPELIKA,AL,36802
345,1961 FIRST AVENUE,OPELIKA,AL,36801
346,2640 ENTERPRISE DR,OPELIKA,AL,36801
347,3900 PEPPERELL PKWY,OPELIKA,AL,36801
348,1961 FIRST AVE,OPELIKA,AL,36801
349,1365 GATEWOOD DRIVE,AUBURN,AL,36830
350,2335 BENT CREEK ROAD,AUBURN,AL,36830
351,2440 PEPPERELL PARKWAY,OPELIKA,AL,36801
352,2506 LAMBERT DRIVE,OPELIKA,AL,36801
353,2415 MOORES MILL RD,AUBURN,AL,36830
354,4150 HIGHWAY 231,LACEYS SPRING,AL,35754
355,117 WATER ST,UNIONTOWN,AL,36786
356,117 WATER ST,UNIONTOWN,AL,36786
357,4 MINNESOTA AVE,THORSBY,AL,35171
358,9081 ALABAMA HWY 22,MAPLESVILLE,AL,36750
359,9081 HWY 22,MAPLESVILLE,AL,36750
360,1023 S OATES STREET,DOTHAN,AL,36301
361,1060 SOUTH OATES STREET,DOTHAN,AL,36301
362,219 FORTNER STREET,DOTHAN,AL,36301
363,5405 SUMMERVILLE RD,PHENIX CITY,AL,36867
364,5301 SUMMERVILLE RD,PHENIX CITY,AL,36867
365,5408 SUMMERVILLE RD,PHENIX CITY,AL,36867
366,605 HWY 31 SOUTH,ATHENS,AL,35611
367,215 HWY 31 SOUTH,ATHENS,AL,35611
368,1011 S HWY 72 EAST,ATHENS,AL,35611
369,100 HIGHWAY 31 NORTH,ATHENS,AL,35611
370,22335 HWY 72 EAST,ATHENS,AL,35613
371,107 SOUTH MAIN,BRUNDIDGE,AL,36010
372,132 S MAIN ST,BRUNDIDGE,AL,36010
373,132 S MAIN ST,BRUNDIDGE,AL,36010
374,29812 ALABAMA HWY 71,BRYANT,AL,35958
375,2212 WHITESBURG DR,HUNTSVILLE,AL,35801
376,201 GOVERNORS DRIVE,HUNTSVILLE,AL,35801
377,301 GOVERNORS DRIVE,HUNTSVILLE,AL,35801
378,24460 HWY 48,WOODLAND,AL,36280
379,2515 CRAWFORD ROAD,PHENIX CITY,AL,36867
380,2413 CRAWFORD ROAD,PHENIX CITY,AL,36867
381,1190 HIGHLAND DR,ELBA,AL,36323
382,991 AL HIGHWAY,ELBA,AL,36323
383,996 HIGHWAY 203,ELBA,AL,36323
384,806 ALABAMA HIGHWAY 203,ELBA,AL,36323
385,704 TROY HIGHWAY,ELBA,AL,36323
386,50452 HIGHWAY 277,BRIDGEPORT,AL,35740
387,3115 BOB WALLACE AVE,HUNTSVILLE,AL,35805
388,2009 DRAKE AVENUE,HUNTSVILLE,AL,35801
389,3054 LEEMAN FERRY ROAD,HUNTSVILLE,AL,35801
390,3054 LEEMAN FERRY ROAD,HUNTSVILLE,AL,35801
391,1878 JEFF ROAD,HUNTSVILLE,AL,35806
392,7583 WALL TRIANA HWY,MADISON,AL,35757
393,7271 WALL TRIANA HWY,MADISON,AL,35757
394,12290 HWY 231 431,NORTH MERIDIANVILLE,AL,35759
395,12275 HWY 231 431N,MERIDIANVILLE,AL,35759
396,12290 HIGHWAY 231 431 N,MERIDIANVILLE,AL,35759
397,1 COTTONVALLEY DRIVE,HUNTSVILLE,AL,35810
398,1 COTTONVALLEY DRIVE,HUNTSVILLE,AL,35810
399,12290 US HIGHWAY 231 431,NORTH MERIDIANVILLE,AL,35759
400,12078 HIGHWAY 231 431,NORTH MERIDIANVILLE,AL,35759
401,7559 HWY 72,WEST MADISON,AL,35758
402,300 HUGHES RD,MADISON,AL,35758
403,8551 WHITFIELD AVE,LEEDS,AL,35094
404,1001 AVALON AVENUE,MUSCLE SHOALS,AL,35661
405,1404 E AVALON AVENUE,TUSCUMBIA,AL,35674
406,2400 AVALON AVE,MUSCLE SHOALS,AL,35661
407,1404 EAST AVALON AVE,TUSCUMBIA,AL,35674
408,14479 COUNTY LINE ROAD,MUSCLE SHOALS,AL,35661
409,14490 COUNTY LINE ROAD,MUSCLE SHOALS,AL,35661
410,14479 COUNTY LINE ROAD,MUSCLE SHOALS,AL,35661
411,1402 COUNTY PARK ROAD,SCOTTSBORO,AL,35769
412,22991 JOHN T REID PARKWAY,SCOTTSBORO,AL,35768
413,24833 JOHN T REID PKWY,SCOTTSBORO,AL,35768
414,6049 COUNTY ROAD 88,PISGAH,AL,35765
415,MAIN STREET,PISGAH,AL,35765
416,150 YARDS N OF P O PISGAH AL,,,35765
417,5295 TAMMY LITTLE DRIVE,SECTION,AL,35771
418,ALABAMA HIGHWAY 21,MUNFORD,AL,36268
419,99 MAGNOLIA STREET,SOUTH LINCOLN,AL,35096
420,47950 US HWY 78,LINCOLN,AL,35096
421,210 W FRONT ST,EVERGREEN,AL,36401
422,450 WEST FRONT STREET,EVERGREEN,AL,36401
423,310 W FRONT STREET,EVERGREEN,AL,36401
424,3008 N 27TH ST,BIRMINGHAM,AL,35207
425,2512 31ST AVE,NORTH BIRMINGHAM,AL,35207
426,3200 16TH STREET,NORTH BIRMINGHAM,AL,35207
427,1500 NORTH 31ST AVENUE,BIRMINGHAM,AL,35207
428,7633 GEORGIA ROAD SOUTH,BIRMINGHAM,AL,35212
429,3303 CLAIRMONT AVENUE S,BIRMINGHAM,AL,35222
430,633 TUSCALOOSA,BIRMINGHAM,AL,35211
431,1133 LOMB AVENUE SW,BIRMINGHAM,AL,35211
432,668 LOMB AVENUE SW,BIRMINGHAM,AL,35211
433,632 TUSCALOOSA AVENUE,BIRMINGHAM,AL,35211
434,817 PRINCETON AVE SW,BIRMINGHAM,AL,35211
435,817 PRINCETON AVE SW,BIRMINGHAM,AL,35211
436,832 PRINCETON AVENUE SW,BIRMINGHAM,AL,35211
437,418 WEST VALLEY AVE,HOMEWOOD,AL,35209
438,101 GREEN SPRINGS HWY,BIRMINGHAM,AL,35209
439,312 PALISADES BOULEVARD,BIRMINGHAM,AL,35209
440,230 GREEN SPRINGS RD,HOMEWOOD,AL,35209
441,234 GREENSPRINGS HWY,HOMEWOOD,AL,35209
442,8700 HWY 69 SOUTH,TUSCALOOSA,AL,35405
443,7700 HIGHWAY 69 SOUTH,TUSCALOOSA,AL,35405
444,9750 HIGHWAY 69 SOUTH,TUSCALOOSA,AL,35405
445,617 BEAR CREEK ROAD,TUSCALOOSA,AL,35405
446,1101 SOUTHVIEW LANE,TUSCALOOSA,AL,35405
447,7700 HWY 69 SOUTH,TUSCALOOSA,AL,35405
448,301A EAST THREE NOTCH ST,ANDALUSIA,AL,36420
449,1991 M L KING JR EXPRESSWAY,ANDALUSIA,AL,36420
450,1133 DR M L K JR EXPSY,ANDALUSIA,AL,36420
451,1204 DR MLK EXPRESSWAY,ANDALUSIA,AL,36420
452,405 NORTH MAIN STREET,OPP,AL,36467
453,405 NORTH MAIN STREET,OPP,AL,36467
454,801 NORTH MAIN STREET,OPP,AL,36467
455,405 NORTH MAIN ST,OPP,AL,36467
456,23355 5TH AVE,FLORALA,AL,36442
457,23214 FIFTH AVE,FLORALA,AL,36442
458,1179 HUFFMAN ROAD,BIRMINGHAM,AL,35215
459,220 FOREST ROAD,HUEYTOWN,AL,35023
460,104 RIVER SQUARE PLAZA,HUEYTOWN,AL,35023
461,411 GREEN SPRINGS HWY,HOMEWOOD,AL,35209
462,2101 RICHARD ARRINGTON JR BLVD S,BIRMINGHAM,AL,35209
463,2714 CAHABA RD,BIRMINGHAM,AL,35223
464,7513 PARKWAY DRIVE,LEEDS,AL,35094
465,8420 1ST AVE S E,LEEDS,AL,35094
466,7272 GADSDEN HIGHWAY,TRUSSVILLE,AL,35173
467,115 N CHALKVILLE ROAD,TRUSSVILLE,AL,35173
468,107 CHALKVILLE ROAD,TRUSSVILLE,AL,35173
469,5421 MAIN STREET,GRANT,AL,35747
470,1941 PATTERSON STREET,GUNTERSVILLE,AL,35976
471,1400 GUNTER AVE,GUNTERSVILLE,AL,35976
472,1027 MARTIN ST S,PELL CITY,AL,35128
473,35767 US HWY 231,ASHVILLE,AL,35953
474,MAIN STREET,ASHVILLE,AL,35953
475,5616 CHALKVILLE ROAD,BIRMINGHAM,AL,35235
476,6735 DEERFOOT PARKWAY,PINSON,AL,35126
477,5980 CHALKVILLE MOUNTAIN ROAD,BIRMINGHAM,AL,35235
478,5940 TRUSSVILLE CROSSING PKWY,BIRMINGHAM,AL,35235
479,585 MORRIS MAJESTIC ROAD,MORRIS,AL,35116
480,9038 HWY 31,KIMBERLY,AL,35091
481,"1310 SPRINGHILL AVENUE,","MOBILE,",AL,36604
482,1700 SPRINGHILL AVENUE,MOBILE,AL,36604
483,41301 S HWY 280,SYLACAUGA,AL,35150
484,1351 FT,WILLIAMS SYLACAUGA,AL,35150
485,1351 WEST FORT WILLIAMS ST,SYLACAUGA,AL,35150
486,2040 SPRINGDALE LN,TARRANT,AL,35217
487,1461 SOUTH MAIN STREET,GRAYSVILLE,AL,35073
488,3925 VETERANS MEMORIAL DR,ADAMSVILLE,AL,35005
489,1950 CRESTWOOD BLVD,BIRMINGHAM,AL,35210
490,1950 CRESTWOOD BLVD,BIRMINGHAM,AL,35210
491,1950 CRESTWOOD BLVD,BIRMINGHAM,AL,35210
492,728 DAUPHIN ISLAND PARKWAY,MOBILE,AL,36606
493,1971 GOVERNMENT STREET,MOBILE,AL,36606
494,755 MCRAE AVENUE,MOBILE,AL,36606
495,2710 SPRINGHILL AVE,MOBILE,AL,36607
496,4011 GOVERNMENT BLVD,MOBILE,AL,36693
497,3968 GOVERNMENT BLVD,MOBILE,AL,36693
498,4055 COTTAGE HILL ROAD,MOBILE,AL,36609
499,3948 AIRPORT BLVD,MOBILE,AL,36608
500,3715 DAUPHIN STREET,MOBILE,AL,36608
501,5301 MOFFETT ROAD,MOBILE,AL,36618
502,5651 MOFFAT ROAD,MOBILE,AL,36618
503,7081 AIRPORT RD,MOBILE,AL,36608
504,6701 AIRPORT BLVD,MOBILE,AL,36608
505,3707 ST STEPHENS ROAD,WHISTLER,AL,36612
506,3445 ST STEPHENS ROAD,PRICHARD,AL,36612
507,400 9TH AVENUE N,JASPER,AL,35502
508,2001 AIRPORT ROAD,NORTH JASPER,AL,35504
509,408 WEST 18TH ST,JASPER,AL,35501
510,280 HIGHWAY 78,WEST JASPER,AL,35501
511,408 W 18TH ST,JASPER,AL,35501
512,2030 3RD AVENUE SOUTH,JASPER,AL,35501
513,101 COMMERCIAL STREET S E,HANCEVILLE,AL,35077
514,4197 CROSSHAVEN DR,VESTAVIA HILLS,AL,35243
515,3965 CROSSHAVEN DRIVE,BIRMINGHAM,AL,35243
516,3925 CROSSHAVEN DRIVE,BIRMINGHAM,AL,35243
517,335 SUMMIT BLVD,BIRMINGHAM,AL,35243
518,784 MONTGOMERY HWY,VESTAVIA HILLS,AL,35216
519,708 MONTGOMERY HIGHWAY,VESTAVIA HILLS,AL,35216
520,1100 MONTGOMERY HWY,VESTAVIA HILLS,AL,35216
521,1300 MONTGOMERY HIGHWAY,VESTAVIA HILLS,AL,35216
522,1062 MONTGOMERY HWY,BIRMINGHAM,AL,35216
523,200 MONTGOMERY HAWY,VESTAVIA HILLS,AL,35216
524,1007 RED FARMER DRIVE,HUEYTOWN,AL,35023
525,4544 SAINT STEPHENS RD,PRICHARD,AL,36613
526,4739 SAINT STEPHENS ROAD,PRICHARD,AL,36613
527,140 COUNCIL DRIVE,ODENVILLE,AL,35120
528,13254 S HWY 411,BRANCHVILLE,AL,35120
529,1100 LEE BRANCH,BIRMINGHAM,AL,35242
530,7191 CAHABA VALLEY ROAD,BIRMINGHAM,AL,35242
531,1573 CAHABA VALLEY ROAD,PELHAM,AL,35124
532,2653 VALLEYDALE RD,BIRMINGHAM,AL,35244
533,518 PELHAM PLAZA,PELHAM,AL,35124
534,591 SOUTH UNION STREET,OZARK,AL,36360
535,101 SAMUEL O MOSLEY DRIVE,SELMA,AL,36701
536,520 HIGHLAND AVENUE,SELMA,AL,36703
537,1352 HIGHLAND AVE,SELMA,AL,36701
538,618 MEDICAL CENTER PARKWAY,SELMA,AL,36701
539,503 MAIN ST WEST,RAINSVILLE,AL,35986
540,14 INDUSTRIAL LANE,SYLVANIA,AL,35988
541,504 MCCURDY AVENUE SOUTH,RAINSVILLE,AL,35986
542,584 MCCURDY AVENUE SOUTH,RAINSVILLE,AL,35986
543,14 INDUSTRIAL LANE,SYLVANIA,AL,35988
544,128 WEST MAIN STREET,RAINSVILLE,AL,35986
545,6817 WARRIOR RIVER ROAD,BESSEMER,AL,35023
546,1090 9TH AVENUE S,W BESSEMER,AL,35022
547,519 WEST TOWN PLAZA,BESSEMER,AL,35020
548,524 WEST TOWN PLAZA,BESSEMER,AL,35020
549,1915 HOOVER COURT,HOOVER,AL,35226
550,1584 MONTGOMERY HIGHWAY,HOOVER,AL,35216
551,1680 MONTGOMERY HWY,HOOVER,AL,35216
552,312 SCHILLINGERS ROAD,MOBILE,AL,36608
553,5808 B HIGHWAY 90 WEST,THEODORE,AL,36582
554,55 MAYFIELD ST,MONROEVILLE,AL,36460
555,1465 S ALABAMA AVENUE,MONROEVILLE,AL,36460
556,3371 SOUTH ALABAMA AVENUE,MONROEVILLE,AL,36460
557,1318 S HWY 21 BYPASS,MONROEVILLE,AL,36460
558,512 PIKE ST,MONROEVILLE,AL,36460
559,3371 SOUTH ALABAMA AVENUE,MONROEVILLE,AL,36460
560,860 WEST FAIRVIEW AVENUE,MONTGOMERY,AL,36106
561,13620 HIGHWAY 43,NORTH NORTHPORT,AL,35475
562,44 BLACKWELL STREET,FYFFE,AL,35971
563,1248 MAIN STREET,FYFFE,AL,35971
564,44 BLACKWELL STREET,FYFFE,AL,35971
565,95 LIGHTWOOD RD HWY 23,DEATSVILLE,AL,36022
566,44984 HWY 17,VERNON,AL,35592
567,9574 HWY 18,VERNON,AL,35592
568,109 EAST DOCTOR HICKS BLVD,FLORENCE,AL,35630
569,221 NORTH COURT STREET,FLORENCE,AL,35630
570,1702 NORTH WOOD AVENUE,FLORENCE,AL,35630
571,1734 CARTER HILL ROAD,MONTGOMERY,AL,36106
572,1069 WOODLEY ROAD,MONTGOMERY,AL,36106
573,4240 NARROW LANE ROAD,MONTGOMERY,AL,36111
574,2055 COLISEUM BLVD,MONTGOMERY,AL,36110
575,3016 MCGEHEE ROAD,MONTGOMERY,AL,36111
576,3003 MCGEHEE RD,MONTGOMERY,AL,36111
577,1460 ANN ST,MONTGOMERY,AL,36107
578,3026 ZELDA ROAD,MONTGOMERY,AL,36106
579,6495 ATLANTA HIGHWAY,MONTGOMERY E,AL,36117
580,6995 ATLANTA HIGHWAY,MONTGOMERY,AL,36117
581,3844 SIPSEY RD,SIPSEY,AL,35584
582,5100 CURRY HIGHWAY,JASPER,AL,35503
583,809 JACKSON TRACE RD,WETUMPKA,AL,36092
584,4150 FLORENCE BLVD,FLORENCE,AL,35634
585,1161 HIGHWAY 72,KILLEN,AL,35645
586,1161 HIGHWAY 72,KILLEN,AL,35645
587,4035 EASTERN BLVD,MONGTGOMERY,AL,36116
588,3990 HWY 25,MONTEVALLO,AL,35115
589,703 MAIN STREET,MONTEVALLO,AL,35115
590,227 WEST COLLEGE ST,COLUMBIANA,AL,35051
591,111 112 SOUTH MAIN STREET,COLUMBIANA,AL,35051
592,1011 FORREST AVENUE,GADSDEN,AL,35901
593,107 E MEIGHAN BLVD,GADSDEN,AL,35903
594,806 HOKE ST,GADSDEN,AL,35903
595,340 EAST MEIGHAN BLVD,GADSDEN,AL,35903
596,201 GEORGE WALLACE DRIVE,GADSDEN,AL,35903
597,1621 HWY 72,KILLEN,AL,35645
598,16135 HWY 72,ROGERSVILLE,AL,35652
599,2006 DANVILLE ROAD SW,DECATUR,AL,35601
600,"1825 MCFARLAND BLVD N.,","TUSCALOOSA,",AL,35405
601,16061 HIGHWAY 69 SOUTH,MOUNDVILLE,AL,35474
602,4400 UNIVERSITY BLVD E,TUSCALOOSA,AL,35404
603,4440 UNIVERSITY BLVD,TUSCALOOSA,AL,35404
604,2731 MARTIN L KING BLVD,TUSCALOOSA,AL,35401
605,635 SKYLAND BLVD,TUSCALOOSA,AL,35401
606,800 WEST GRAND AVENUE,RAINBOW CITY,AL,35901
607,369 HAMILTON STREET,COURTLAND,AL,35618
608,2721 ALABAMA HIGHWAY 20,TOWN CREEK,AL,35672
609,239 NEEL SCHOOL ROAD,DANVILLE,AL,35619
610,404 SPARKMAN ST NW,HARTSELLE,AL,35640
611,31040 NE 1ST AVE,CARBON HILL,AL,35549
612,31946 NW 1ST AVE,CARBON HILL,AL,35549
613,31930 NW 1ST AVENUE,CARBON HILL,AL,35549
614,30910 HWY 278 AL HWY,ADDISON,AL,35540
615,49 NEW OAKMAN HWY,PARRISH,AL,35580
616,6456 ALABAMA,PARRISH,AL,35580
617,6455 HWY 269,PARRISH,AL,35580
618,103 SOUTH WATER STREET,TUSCUMBIA,AL,35674
619,100 SOUTH MAIN STREET,TUSCUMBIA,AL,35674
620,6891 VAUGHN ROAD,MONTGOMERY,AL,36116
621,4685 HWY 17,HELENA,AL,35080
622,335 HELENA,MARKETPLACE HELENA,AL,35080
623,5129 HIGHWAY 17,HELENA,AL,35080
624,5135 C HWY 17,HELENA,AL,35080
625,10705 ALABAMA HIGHWAY 75,IDER,AL,35981
626,1702 GLENN BLVD SW,FORT PAYNE,AL,35967
627,1614 GLENN BLVD SW,FORT PAYNE,AL,35968
628,1130 WALNUT STREET,CENTREVILLE,AL,35042
629,155 BIRMINGHAM ROAD,CENTREVILLE,AL,35042
630,10675 HIGHWAY 5,BRENT,AL,35034
631,1955 EAST MAIN STREET,DOTHAN,AL,36301
632,2041 E MAIN STREET,DOTHAN,AL,36301
633,2115 EAST MAIN ST,DOTHAN,AL,36301
634,87490 US HWY 278,SNEAD,AL,35952
635,87458 US HWY 278 E,ALTOONA,AL,35952
636,29984 STATE HWY 79,LOCUST FORK,AL,35097
637,879 FORT DALE RD,GREENVILLE,AL,36037
638,207 CEDAR STREET,GREENVILLE,AL,36037
639,211 CEDAR STREET,GREENVILLE,AL,36037
640,501 WILLOW LN,GREENVILLE,AL,36037
641,5560 MC CLELLAN BLVD,ANNISTON,AL,36206
642,92 PLAZA LANE,OXFORD,AL,36203
643,1542 HIGHWAY 78 EAST,OXFORD,AL,36203
644,601 SNOW STREET,OXFORD,AL,36203
645,400 OXFORD EXCHANGE BLVD,OXFORD,AL,36203
646,2427 HWY 202,ANNISTON,AL,36201
647,34301 HIGHWAY 43,THOMASVILLE,AL,36784
648,470 SAFFORD AVENUE W,THOMASVILLE,AL,36784
649,33495 HIGHWAY 43,THOMASVILLE,AL,36784
650,33151 HIGHWAY 43,THOMASVILLE,AL,36784
651,2501 COLLEGE AVENUE,JACKSON,AL,36545
652,1201 COLLEGE STREET,JACKSON,AL,36545
653,1926 BYNUM BLVD,EASTABOGA,AL,36260
654,2413 HIGHWAY 431,NORTH ANNISTON,AL,36206
655,88960 HWY 9,LINEVILLE,AL,36266
656,60026 HWY 49,LINEVILLE,AL,36266
657,83074 HWY 9,ASHLAND,AL,36251
658,83871 HWY 9,ASHLAND,AL,36251
659,HWY 9,ASHLAND,AL,36251
660,7814 AL HWY 77 INDIAN VILLAGE PLAZA,OHATCHEE,AL,36271
661,445 AL HWY 69 SOUTH,HANCEVILLE,AL,35077
662,339 9TH AVE S,W LAFAYETTE,AL,36862
663,339 9TH AVE SW,LAFAYETTE,AL,36862
664,204 E BRUNSON ST,ENTERPRISE,AL,36331
665,112 NORTH MAIN STREET,ENTERPRISE,AL,36330
666,900 RUCKER BLVD,ENTERPRISE,AL,36330
667,903 RUCKER BOULEVARD,ENTERPRISE,AL,36330
668,507 N COLUMBIA AVE,SHEFFIELD,AL,35660
669,409 NORTH MONTGOMERY AVE,SHEFFIELD,AL,35660
670,1401 WOODMONT DRIVE,TUSCUMBIA,AL,35674
671,859 EAST HOBSON ST,TUSCUMBIA,AL,35674
672,4500 20TH AVENUE,VALLEY,AL,36854
673,3501 20TH AVENUE,VALLEY,AL,36854
674,4103 20TH AVE,VALLEY,AL,36854
675,4103 20TH AVENUE,VALLEY,AL,36854
676,1490 CHESTNUT BYPASS,CENTRE,AL,35960
677,699 CEDAR BLUFF RD,CENTRE,AL,35960
678,101 CHESTNUT BYPASS,CENTRE,AL,35960
679,1525 CHESTNUT BYPASS,CENTRE,AL,35960
680,1950 W MAIN,ST CENTRE,AL,35960
681,697 CEDAR BLUFF RD,CENTRE,AL,35960
682,5705 HWY 278,SULLIGENT,AL,35586
683,24724 HWY 31,JEMISON,AL,35085
684,2230 RAILROAD ST,LEIGHTON,AL,35646
685,1369 GEORGE WALLACE HIGHWAY,RUSSELLVILLE,AL,35654
686,3190 ALABAMA HIGHWAY 157,CULLMAN,AL,35058
687,209 4TH AVE N E,CULLMAN,AL,35055
688,1557 THIRD ST NE,CULLMAN,AL,35055
689,2104 ALABAMA HWY 157,CULLMAN,AL,35058
690,1800 ALABAMA HIGHWAY,CULLMAN,AL,35058
691,2104 ALABAMA HIGHWAY 157,CULLMAN,AL,35058
692,3259 ALABAMA HWY 157 SUITE E,CULLMAN,AL,35056
693,875 ROSS ST,HEFLIN,AL,36264
694,960 ROSS ST,HEFLIN,AL,36264
695,101 SOUTH GREENO ROAD,FAIRHOPE,AL,36532
696,187 BALDWIN SQUARE,FAIRHOPE,AL,36532
697,10040 COUNTY ROAD 48,FAIRHOPE,AL,36533
698,51 S GREENO RD,FAIRHOPE,AL,36532
699,398 FAIRHOPE AVENUE,FAIRHOPE,AL,36532
700,2 SOUTH GREENO RD,FAIRHOPE,AL,36532
701,12547 COUNTY RD 49,MAGNOLIA SPRINGS,AL,36555
702,14975 HIGHWAY 98,MAGNOLIA SPRINGS,AL,36555
703,89 TRAMMELL,BLOCK VALLEY,AL,36854
704,1300 SOUTH MCKENZIE ST,FOLEY,AL,36535
705,698 S MCKENZIE ST,FOLEY,AL,36535
706,121 WEST LAUREL AVE,FOLEY,AL,36535
707,101 WEST LAUREL AVENUE,FOLEY,AL,36535
708,1255 SOUTH MCKENZIE STREET,FOLEY,AL,36535
709,1235 MCKENZIE ST,FOLEY,AL,36535
710,2200 S MCKENZIE ST,FOLEY,AL,36535
711,12831 6TH STREET,LILLIAN,AL,36549
712,34023 US HIGHWAY 98,LILLIAN,AL,36549
713,804 MAIN STREET NE,HANCEVILLE,AL,35077
714,303 NORTH MAIN STREET,HANCEVILLE,AL,35077
715,542 SOUTH EUFAULA AVENUE,EUFAULA,AL,36027
716,542 SOUTH EUFAULA AVE,EUFAULA,AL,36027
717,206 E BROAD ST,EUFAULA,AL,36027
718,146 E BROAD ST,EUFAULA,AL,36027
719,206 E BROAD ST,EUFAULA,AL,36027
720,7501 1ST AVENUE N,BIRMINGHAM,AL,35206
721,860 MONTCLAIR RD,BIRMINGHAM,AL,35213
722,413 19TH STREET,ENSLEY BIRMINGHAM,AL,35218
723,1433 3RD ST SW,ATTALLA,AL,35954
724,315 THIRD STREET NW,ATTALLA,AL,35954
725,973 GILBER FERRY RD SE,ATTALLA SW,AL,35954
726,3403 RAINBOW DR,RAINBOW CITY,AL,35906
727,3434 RAINBOW DRIVE,RAINBOW CITY,AL,35906
728,3331 RAINBOW DRIVE,RAINBOW CITY,AL,35906
729,110 MMC PARKWAY,RAINBOW CITY,AL,35906
730,544 W MAIN ST,GLENCOE,AL,35905
731,2700 10TH AVE SOUTH,BIRMINGHAM,AL,35205
732,805 ST VINCENT S DRIVE,BIRMINGHAM,AL,35205
733,3020 CLAIRMONT AVE S,BIRMINGHAM,AL,35205
734,2100 16TH AVENUE SOUTH,BIRMINGHAM,AL,35205
735,220 GADSDEN HIGHWAY,BIRMINGHAM,AL,35235
736,9325 PARKWAY E,BIRMINGHAM,AL,35215
737,9709 PARKWAY EAST,BIRMINGHAM,AL,35215
738,50 MEDICAL PARK DRIVE EAST,BIRMINGHAM,AL,35235
739,9711 A PARKWAY EAST,BIRMINGHAM,AL,35215
740,1675 CENTER POINT PARKWAY,BIRMINGHAM,AL,35215
741,1683 CENTERPOINT ROAD,CENTERPOINT,AL,35215
742,1280 HUEYTOWN RD,HUEYTOWN,AL,35023
743,2600 15TH STREET RD,HUEYTOWN,AL,35023
744,2600 15TH STREET ROAD,HUEYTOWN,AL,35023
745,815 8TH ST N,BESSEMER,AL,35020
746,130 SOUTH 9TH STREET,BESSEMER,AL,35020
747,15073 S US HWY 231,MIDLAND CITY,AL,36350
748,4258 HWY 80 WEST,SELMA,AL,36701
749,4901 GARY AVE,FAIRFIELD,AL,35064
750,7201 AARON ARONOV DRIVE,FAIRFIELD,AL,35064
751,604 BESSEMER SUPER HWY,MIDFIELD,AL,35228
752,ONE W LAKESHORE DRIVE,BIRMINGHAM,AL,35209
753,211 SUMMIT PARKWAY,HOMEWOOD,AL,35209
754,201 LAKESHORE PKWY,HOMEWOOD,AL,35209
755,209 LAKESHORE PARKWAY,HOMEWOOD,AL,35209
756,120 OXMOOR BLVD,BIRMINGHAM,AL,35209
757,126 WILDWOOD PARKWAY,BIRMINGHAM,AL,35209
758,60 CHURCH ST,BIRMINGHAM,AL,35213
759,2711 CULVER ROAD,MOUNTAIN BROOK,AL,35223
760,93 EUCLID AVENUE,MOUNTAIN BRK,AL,35213
761,57 CHURCH STREET,BIRMINGHAM,AL,35213
762,57 CHURCH,ST MT BROOK,AL,35213
763,7596 PARKWAY DR SE,LEEDS,AL,35094
764,18294 BROAD STREET,HENAGAR,AL,35978
765,17171 ALABAMA HIGHWAY 75,HENAGAR,AL,35978
766,128 WEST MAIN STREET,RAINSVILLE,AL,35986
767,42 MCCURDY AVENUE N,RAINSVILLE,AL,35986
768,266 INDUSTRIAL DRIVE,RAINSVILLE,AL,35986
769,41554 ALABAMA HWY,GERALDINE,AL,35974
770,41554 AL HIGHWAY 75,GERALDINE,AL,35974
771,31 DEPOT STREET,BERRY,AL,35546
772,31 DEPOT STREET,BERRY,AL,35546
773,315 MAIN ST,TRUSSVILLE,AL,35173
774,1654 GADSDEN HWY,TRUSSVILLE,AL,35235
775,465 MAIN STREET,TRUSSVILLE,AL,35173
776,6767 OLD SPRINGVILLE ROAD,PINSON,AL,35126
777,3900 GRANTS MILL ROAD,IRONDALE,AL,35210
778,2804 CRESTWOOD BLVD,BIRMINGHAM,AL,35210
779,103 GREENHILL BLVD NW,FORT PAYNE,AL,35967
780,1613 GLENN BLVD SW,FORT PAYNE,AL,35968
781,2001 GLENN BLVD SW,FORT PAYNE,AL,35968
782,1916 GAULT AVE,NORTH FORT PAYNE,AL,35967
783,1303 GAULT AVENUE,NORTH FT PAYNE,AL,35967
784,101 CRACKER BARREL ROW SW,FORT PAYNE,AL,35968
785,1825 EVERETT DRIVE,WEST FORT PAYNE,AL,35968
786,1102 4TH STREET NW,RED BAY,AL,35582
787,434 HWY 31,WARRIOR,AL,35180
788,219 MAIN STREET,NORTH WARRIOR,AL,35180
789,300 MAIN STREET NORTH,WARRIOR,AL,35180
790,10107 CORNER SCHOOL RD,WARRIOR,AL,35180
791,8000 LIBERTY PARKWAY,BIRMINGHAM,AL,35242
792,737 MONTGOMERY HIGHWAY,VESTAVIA HILLS,AL,35216
793,1119 ROYAL TOWER DRIVE,BIRMINGHAM,AL,35209
794,2010 BROOKWOOD MEDICAL CENTER DRIVE,HOMEWOOD,AL,35209
795,1119 ROYAL TOWER DRIVE,BIRMINGHAM,AL,35209
796,3346 MORGAN DRIVE,VESTAVIA HILLS,AL,35216
797,2480 ROCKY RIDGE ROAD,VESTAVIA,AL,35243
798,165 BESSEMER SUPER HWY,MIDFIELD,AL,35228
799,30 PHILLIPS DR,MIDFIELD,AL,35228
800,702 W MAPLE AVE,GENEVA,AL,36340
801,1608 W MAGNOLIA AVE,GENEVA,AL,36340
802,1008 W MAPLE AVE,GENEVA,AL,36340
803,1541 WEST MAGNOLIA AVE,GENEVA,AL,36340
804,501 SOUTH COMMERCE STREET,GENEVA,AL,36340
805,1532 HUFFMAN ROAD,BIRMINGHAM,AL,35215
806,1916 CENTER POINT RD,CENTER POINT,AL,35215
807,3633 GRAY AVENUE,ADAMSVILLE,AL,35005
808,750 ACADEMY DR,BESSEMER,AL,35020
809,985 9TH AVENUE S W,BESSEMER,AL,35022
810,2901 MORGAN RD,BESSEMER,AL,35022
811,1209 LAKE DRIVE,BESSEMER,AL,35022
812,2910 MORGAN ROAD,BESSEMER,AL,35022
813,1310 EASTERN VALLEY ROAD,CHARLES E PRICKETT BESSEMER,AL,35020
814,111 W MILL ST,HARTFORD,AL,36344
815,2090 COLUMBIANA ROAD,BIRMINGHAM,AL,35216
816,509 MINERAL TRACE,BIRMINGHAM,AL,35244
817,2505 HWY 150,HOOVER,AL,35244
818,2780 JOHN HAWKINS PARKWAY,HOOVER,AL,35244
819,2543 JOHN HAWKINS PARKWAY,HOOVER,AL,35244
820,2301 JOHN HAWKINS PKWY,HOOVER,AL,35244
821,5271 ROSS BRIDGE PKWY,HOOVER,AL,35226
822,5561 GROVE BLVD,BIRMINGHAM,AL,35226
823,2250 HWY 150,BIRMINGHAM,AL,35244
824,55298 HIGHWAY 17,SULLIGENT,AL,35586
825,1207 STATE STREET,GREENSBORO,AL,36744
826,675 TUSCALOOSA STREET,GREENSBORO,AL,36744
827,13532 HWY 96 EAST,MILLPORT,AL,35576
828,1604 FLORENCE BOULEVARD,FLORENCE,AL,35630
829,2602 FLORENCE BLVD,FLORENCE,AL,35630
830,K MART 105 S COX CREEK PARKWAY,FLORENCE,AL,35630
831,1501 FLORENCE BLVD,FLORENCE,AL,35630
832,2403 FLORENCE BOULEVARD,FLORENCE,AL,35630
833,3100 HOUGH RD,FLORENCE,AL,35630
834,2602 HOUGH ROAD,FLORENCE,AL,35630
835,2401 HELTON DRIVE,FLORENCE,AL,35630
836,372 COX CREEK PARKWAY,FLORENCE,AL,35630
837,2112 HELTON DR,FLORENCE,AL,35630
838,235 AZALEA DRIVE,FLORENCE,AL,35630
839,2465 MALL ROAD,FLORENCE,AL,35630
840,322 COX CREEK PARKWAY,FLORENCE,AL,35630
841,1002 COX CREEK PKWY,FLORENCE,AL,35633
842,2320 MOORES MILL ROAD,AUBURN,AL,36830
843,2940 WEST MAIN STREET,DOTHAN,AL,36305
844,1233 WESTGATE PARKWAY,DOTHAN,AL,36303
845,5730 W MAIN ST,DOTHAN,AL,36305
846,4119 WEST MAIN STREET,DOTHAN,AL,36305
847,4030 WEST MAIN STREET,DOTHAN,AL,36305
848,4440 W MAIN ST,DOTHAN,AL,36305
849,3850 W MAIN STREET,DOTHAN,AL,36305
850,4601 MONTGOMERY HWY,DOTHAN,AL,36303
851,4650 WEST MAIN STREET,DOTHAN,AL,36305
852,3525 ROSS CLARK CIRCLE,DOTHAN,AL,36303
853,"2721 WEST MAIN STREET,","DOTHAN,",AL,36301
854,3090 ROSS CLARK CIRCLE SW,DOTHAN,AL,36301
855,277 W MAIN ST,DOTHAN,AL,36301
856,2131 ROSS CLARK CIRCLE,DOTHAN,AL,36301
857,2214 ROSS CLARK CIRCLE S,W DOTHAN,AL,36301
858,1650 SOUTH COLLEGE STREET,AUBURN,AL,36830
859,2900 EAST UNIVERSITY DRIVE,AUBURN,AL,36830
860,1441 FOXRUN PARKWAY,OPELIKA,AL,36801
861,111 EAST CHURCH STREET,COLUMBIA,AL,36319
862,2101 DANIEL PAYNE DRIVE,BIRMINGHAM,AL,35214
863,2463 LEE RD,SMITHSSTATION,AL,36877
864,2463 LEE ROAD 430,SMITHS STATION,AL,36877
865,114 COMMERCE AVE,VALLEY HEAD,AL,35989
866,114 COMMERCE AVE,VALLEY HEAD,AL,35989
867,1888 OGLETREE ROAD,AUBURN,AL,36830
868,7667 ALABAMA HWY 51,OPELIKA,AL,36804
869,1204 W MARKET ST,ATHENS,AL,35611
870,200 WEST MARKET STREET,ATHENS,AL,35612
871,200 W MARKET ST,ATHENS,AL,35612
872,27691 CAPSHAW ROAD,HARVEST,AL,35749
873,22031 S HIGHWAY 72,ATHENS,AL,35613
874,575 CLAUD ROAD,ECLECTIC,AL,36024
875,120 SOUTH POLLARD STREET,MAILING FORT DEPOSIT,AL,36032
876,763 WILSON ST,WETUMPKA,AL,36092
877,795 WILSON ST,WETUMPKA,AL,36092
878,2160 STATE ROUTE 9,LAKE GEORGE,NY,12845
879,54 VILLAGE LOOP,WETUMPKA,AL,36093
880,4538 S HWY 231,WETUMPKA,AL,36092
881,209 W MLK HWY,TUSKEGEE,AL,36083
882,202 W MARTIN LUTHER KING HWY,TUSKEGEE,AL,36083
883,203 WEST LEE STREET,TUSKEGEE,AL,36083
884,203 WEST LEE STREET,TUSKEGEE,AL,36083
885,2451 COBBS FORD RD,PRATTVILLE,AL,36066
886,2754 LEGENDS PARKWAY,PRATTVILLE,AL,36066
887,1121 BELLEVILLE AVENUE,BREWTON,AL,36426
888,2040 DOUGLAS AVE,BREWTON,AL,36426
889,2578 DOUGLAS AVE,BREWTON,AL,36426
890,2578 DOUGLAS AVENUE,BREWTON,AL,36426
891,1025 DOUGLAS AVE,BREWTON,AL,36426
892,174 HWY 113,FLOMATON,AL,36441
893,331 PALAFOX STREET,FLOMATON,AL,36441
894,102 EBLE STREET,GADSDEN,AL,35904
895,2608 W MEIGHAN BLVD,GADSDEN,AL,35904
896,319 BROAD STREET,GADSDEN,AL,35901
897,401 SOUTH FIRST STREET,GADSDEN,AL,35901
898,911 RAINBOW DRIVE,GADSDEN,AL,35901
899,825 W MEIGHAN BLVD,GADSDEN,AL,35901
900,DR MARTIN LUTHER KING JR AVE,MOBILE,AL,36603
901,1303 DR MARTIN LUTHER KING JR MOBILE AL,,,36603
902,2050 GOVERNMENT STREET,MOBILE,AL,36606
903,2152 AIRPORT BLVD,MOBILE,AL,36606
904,2152 AIRPORT BOULEVARD,MOBILE,AL,36606
905,2550 DAUPHIN ST,MOBILE,AL,36606
906,3170 DAUPHIN ST,MOBILE,AL,36606
907,3150 BEL AIR MALL,MOBILE,AL,36606
908,3207 INTERNATIONAL DR,MOBILE,AL,36606
909,4350 OLD SHELL ROAD,MOBILE,AL,36608
910,4453 OLD SHELL RD,MOBILE,AL,36608
911,4415 OLD SHELL RD,MOBILE,AL,36608
912,6400 AIRPORT BOULEVARD,MOBILE,AL,36608
913,1970 S UNIVERSITY BLVD,MOBILE,AL,36609
914,5705 COTTAGE HILL RD,MOBILE,AL,36609
915,6305 COTTAGE HILL ROAD,MOBILE,AL,36609
916,3465 ATLANTA HWY,MONTGOMERY,AL,36109
917,2281 E SOUTH BLVD,MONTGOMERY,AL,36116
918,2055 E SOUTH BOULEVARD,MONTGOMERY,AL,36116
919,2920 CARTER HILL RD,MONTGOMERY,AL,36106
920,"414 EAST SOUTH BOULEVARD,","MONTGOMERY,",AL,36105
921,1011 PERRY HILL ROAD,MONTGOMERY,AL,36109
922,1080 EASTERN BLVD,MONTGOMERY,AL,36117
923,5350 ATLANTA HIGHWAY,MONTGOMERY,AL,36109
924,2020 EAST SOUTH BLVD,MONTGOMERY,AL,36116
925,4145 CARMICHAEL ROAD,MONTGOMERY,AL,36106
926,2730 EAST BLVD,MONTGOMERY,AL,36117
927,1635 PERRY HILL ROAD,MONTGOMERY,AL,36106
928,4145 CARMICHAEL RD,MONTGOMERY,AL,36106
929,"1629 PERRY HILL RD,","MONTGOMERY,",AL,36106
930,3480 EASTERN BOULEVARD,MONTGOMERY,AL,36116
931,5841 ATLANTA HIGHWAY,MONTGOMERY,AL,36117
932,5045 N MEMORIAL PARKWAY,HUNTSVILLE,AL,35810
933,717 PRATT AVENUE NE,HUNTSVILLE,AL,35801
934,704 PRATT AVENUE NE,HUNTSVILLE,AL,35801
935,801 ANDREW JACKSON W,HUNTSVILLE,AL,35801
936,12 SHELTON BEACH RD,SARALAND,AL,36571
937,311 SHELTON BEACH RD,SARALAND,AL,36571
938,13 SHELTON BEACH ROAD,SARALAND,AL,36571
939,112 SARALAND LOOP,SARALAND,AL,36571
940,112 SARALAND LOOP,SARALAND,AL,36571
941,5565 US HWY 43,SATSUMA,AL,36572
942,8189 VAUGHN ROAD,MONTGOMERY,AL,36116
943,7932 VAUGH RD,MONTGOMERY,AL,36116
944,2576 BERRYHILL ROAD,MONTGOMERY,AL,36117
945,2747 BELL RD,MONTGOMERY,AL,36117
946,9168 E CHASE PKWY,MONTGOMERY,AL,36117
947,8251 EASTCHASE PARKWAY,MONTGOMERY,AL,36117
948,545 COTTON GIN ROAD,MONTGOMERY,AL,36117
949,6680 ATLANTA HWY,MONTGOMERY,AL,36117
950,6990 ATLANTA HWY,MONTGOMERY,AL,36117
951,7200 COPPERFIELD DR,MONTGOMERY,AL,36117
952,7200 COPPERFIELD DR,MONTGOMERY,AL,36117
953,7076 ATLANTA HIGHWAY,MONTGOMERY,AL,36117
954,9505 VAUGHN ROAD PIKE ROAD AL,,,36064
955,10710 CHANTILLY PARKWAY,MONTGOMERY,AL,36117
956,3801 EASTERN BLVD,MONTGOMERY,AL,36116
957,55 RAY THORINGTON RD,MONTGOMERY,AL,36117
958,7946 VAUGHN RD,MONTGOMERY,AL,36116
959,5100 HIGHWAY 31,CALERA,AL,35040
960,90 MARKETPLACE CIRCLE,CALERA,AL,35040
961,9301 HWY 119,ALABASTER,AL,35007
962,444 WYNN DRIVE N W,HUNTSVILLE,AL,35816
963,6275 UNIVERSITY DRIVE NW,HUNTSVILLE,AL,35806
964,5651 HOLMES AVE NW,HUNTSVILLE,AL,35816
965,,HUNTSVILLE,AL,35806
966,2001 CECIL ASHBURN DRIVE SE,HUNTSVILLE,AL,35802
967,2784 CARL T JONES DR SE,HUNTSVILLE,AL,35802
968,2750 CARL T JONES DRIVE S E,HUNTSVILLE,AL,35802
969,3120 BOB WALLACE AVE SW,HUNTSVILLE,AL,35805
970,2701 E PATTON RD,HUNTSVILLE,AL,35805
971,7900 BAILEY COVE ROAD,HUNTSVILLE,AL,35802
972,9020 BAILEY COVE ROAD,HUNTSVILLE,AL,35802
973,11220 SOUTH MEMORIAL PARKWAY,HUNTSVILLE,AL,35803
974,,HUNTSVILLE,AL,35802
975,11030 SOUTH MEMORIAL PKWY,HUNTSVILLE,AL,35803
976,2235 NATIONAL BLVD,HUNTSVILLE,AL,35803
977,10300 BAILEY COVE RD,HUNTSVILLE,AL,35803
978,12796 BAILEY COVE RD SE,HUNTSVILLE,AL,35803
979,19215 NORTH 3RD ST,CITRONELLE,AL,36522
980,19240 MOBILE ST,CITRONELLE,AL,36522
981,19580 N THIRD STREET,CITRONELLE,AL,36522
982,19270 HOWARD AVE,CITRONELLE,AL,36522
983,824 6TH AVENUE SE,DECATUR,AL,35601
984,1127 6TH AVENUE SE,DECATUR,AL,35601
985,1517 W MOULTON ST,DECATUR,AL,35601
986,2643 HWY 280 WEST,ALEXANDER CITY,AL,35010
987,5324 WINCHESTER ROAD,NEW MARKET,AL,35761
988,14470 HIGHWAY 231 431,NORTH HAZEL GREEN,AL,35750
989,13574 HIGHWAY 231 431 SUITE,HAZEL GREEN,AL,35750
990,14450 HIGHWAY 231 431,NORTH HAZEL GREEN,AL,35750
991,9179 MOFFETT RD,SEMMES,AL,36575
992,9948 AIRPORT BLVD,MOBILE,AL,36608
993,9948 AIRPORT BOULEVARD,MOBILE,AL,36608
994,536 HUDSON DR,GORDO,AL,35466
995,25700 HIGHWAY 17,CARROLLTON,AL,35447
996,194 WILLIAM E HILL DRIVE,CARROLLTON,AL,35447
997,194 WILLIAM E HILL DRIVE,CARROLLTON,AL,35447
998,7004 CHAMPION BLVD,BIRMINGHAM,AL,35242
999,5188 CALDWELL MILL RD,BIRMINGHAM,AL,35244
